OBJECT_NAME,OBJECT_ID,EPOCH,MEAN_MOTION,ECCENTRICITY,INCLINATION,RA_OF_ASC_NODE,ARG_OF_PERICENTER,MEAN_ANOMALY,EPHEMERIS_TYPE,CLASSIFICATION_TYPE,NORAD_CAT_ID,ELEMENT_SET_NO,REV_AT_EPOCH,BSTAR,MEAN_MOTION_DOT,MEAN_MOTION_DDOT
TIANMU-1 20,2023-208B,2026-07-08T22:21:05.443200,15.33099113,.00058476,97.4456,307.0069,237.7260,122.3416,0,U,58661,999,14075,.1711393E-3,.5394E-4,0
TIANMU-1 21,2023-208C,2026-07-08T22:50:25.958976,15.35474050,.00061155,97.4516,309.8033,228.5762,131.4956,0,U,58662,999,14090,.19456069E-3,.6627E-4,0
TIANMU-1 22,2023-208D,2026-07-08T23:09:36.407808,15.31367815,.00023309,97.4511,306.3001,250.8901,109.2088,0,U,58663,999,14066,.16397639E-3,.4888E-4,0
TIANMU-1 15,2024-004A,2026-07-08T23:41:17.609568,15.26871532,.00057266,97.4673,16.1779,255.5298,104.5306,0,U,58700,999,13910,.13529304E-3,.3497E-4,0
TIANMU-1 16,2024-004B,2026-07-08T23:26:43.723680,15.26974484,.0004315,97.4620,15.3877,275.5651,84.5095,0,U,58701,999,13910,.1397378E-3,.3625E-4,0
TIANMU-1 17,2024-004C,2026-07-08T23:05:48.681600,15.26972330,.00038671,97.4649,15.8662,283.4419,76.6389,0,U,58702,999,13909,.13500129E-3,.35E-4,0
TIANMU-1 18,2024-004D,2026-07-08T22:30:52.888032,15.26888703,.00033985,97.4667,16.1040,255.4730,104.6132,0,U,58703,999,13909,.13414953E-3,.3468E-4,0
INSAT-3DS,2024-033A,2026-07-08T20:55:45.887232,1.00272599,.00011934,0.0123,313.7382,165.6770,203.4161,0,U,58990,999,4728,0,-.142E-5,0
METEOR-M2 4,2024-039A,2026-07-08T23:44:48.067008,14.22431722,.00081896,98.7021,149.0147,104.1617,256.0471,0,U,59051,999,12236,.17074602E-4,-.6E-7,0
GOES 19,2024-119A,2026-07-08T20:11:09.903840,1.00271136,.00004934,0.0119,263.9197,290.0939,320.3727,0,U,60133,999,718,0,-.234E-5,0
MTG-S1,2025-143A,2026-07-08T20:32:23.807904,1.00272591,.00033544,0.5879,343.5371,262.1393,348.7838,0,U,64723,999,363,0,.7E-7,0
METOP-SGA1,2025-172A,2026-07-08T18:35:05.977536,14.19818497,.00074235,98.6633,249.0456,351.7022,8.4031,0,U,65159,999,4685,.27535881E-4,.15E-6,0
FENGYUN 3H,2025-219A,2026-07-08T19:33:43.834752,14.19924164,.00012819,98.6772,130.1641,63.2682,296.8626,0,U,65815,999,4045,.31167713E-4,.23E-6,0
